LANDSAT 8               
1 39084U 13008A   26087.61305373  .00000367  00000+0  91413-4 0  9994
2 39084  98.1886 159.0250 0001191  93.7682 266.3653 14.57127734686164
SARAL                   
1 39086U 13009A   26087.59539547  .00000124  00000+0  61345-4 0  9998
2 39086  98.5564 275.1761 0002459 136.5404 223.5974 14.32834483684063
GAOFEN-1                
1 39150U 13018A   26087.62311420  .00000820  00000+0  12470-3 0  9999
2 39150  97.9143 161.3106 0017584 161.2185 198.9677 14.76513102696356
VNREDSAT 1              
1 39160U 13021B   26087.62477252  .00000864  00000+0  17013-3 0  9996
2 39160  97.9178 144.0964 0001438  79.4652 280.6713 14.64916785688492
ARIRANG-5 (KOMPSAT-5)   
1 39227U 13042A   26087.55796306  .00000994  00000+0  75230-4 0  9999
2 39227  97.6213 275.3819 0004991  66.8957 293.2795 15.04539946691731
SKYSAT-A                
1 39418U 13066C   26087.42530111  .00003834  00000+0  22292-3 0  9998
2 39418  97.3916 139.3848 0020411 230.7910 129.1509 15.12483526676270
DUBAISAT-2              
1 39419U 13066D   26087.54982343  .00004041  00000+0  25546-3 0  9996
2 39419  97.4545  79.8567 0009994 319.2372  40.8109 15.09548131674222
GPM-CORE                
1 39574U 14009C   26087.61273924  .00017162  00000+0  36421-3 0  9994
2 39574  64.9726 218.0837 0012427 272.3785  87.5933 15.45096591685361
SENTINEL-1A             
1 39634U 14016A   26087.59037683  .00000016  00000+0  13130-4 0  9999
2 39634  98.1821  96.2901 0001376  83.3197 276.8160 14.59199179638261
KAZEOSAT 1              
1 39731U 14024A   26087.60398421  .00000509  00000+0  16802-3 0  9993
2 39731  98.3251 162.0409 0001065  97.7493 262.3818 14.42046309626946
ALOS-2                  
1 39766U 14029A   26087.58827914  .00001956  00000+0  26886-3 0  9997
2 39766  97.9186 185.9108 0001928 102.7367 257.4060 14.79446030639663
KAZEOSAT 2              
1 40010U 14033A   26087.59704944  .00001180  00000+0  14291-3 0  9990
2 40010  97.5481 291.4384 0007447 218.0716 141.9974 14.85368924636997
HODOYOSHI-4             
1 40011U 14033B   26087.60947984  .00001919  00000+0  21429-3 0  9997
2 40011  97.5462 276.3262 0022862 209.8011 150.1905 14.87909309636826
DEIMOS-2                
1 40013U 14033D   26087.58997284  .00001438  00000+0  14184-3 0  9990
2 40013  97.5947 324.8696 0000803 110.1582 249.9725 14.93478200625692
HODOYOSHI-3             
1 40015U 14033F   26087.41061332  .00001304  00000+0  15707-3 0  9994
2 40015  97.6332 253.7467 0031567 260.1276  99.6375 14.85189095635634
SPOT 7                  
1 40053U 14034A   26087.63648251  .00000703  00000+0  15295-3 0  9996
2 40053  98.0708 152.1802 0001586  92.6214 267.5169 14.60883402625374
SKYSAT-B                
1 40072U 14037D   26087.42666158  .00001826  00000+0  20663-3 0  9995
2 40072  98.3758  41.8411 0005654 166.6141 193.5225 14.87794616633955
