[{"OBJECT_NAME":"LANDSAT 8","OBJECT_ID":"2013-008A","EPOCH":"2026-03-28T14:42:47.842272","MEAN_MOTION":14.57127734,"ECCENTRICITY":0.00011919,"INCLINATION":98.1886,"RA_OF_ASC_NODE":159.025,"ARG_OF_PERICENTER":93.7682,"MEAN_ANOMALY":266.3653,"EPHEMERIS_TYPE":0,"CLASSIFICATION_TYPE":"U","NORAD_CAT_ID":39084,"ELEMENT_SET_NO":999,"REV_AT_EPOCH":68616,"BSTAR":9.1412818e-5,"MEAN_MOTION_DOT":3.67e-6,"MEAN_MOTION_DDOT":0},{"OBJECT_NAME":"SARAL","OBJECT_ID":"2013-009A","EPOCH":"2026-03-28T14:17:22.168608","MEAN_MOTION":14.32834483,"ECCENTRICITY":0.00024595,"INCLINATION":98.5564,"RA_OF_ASC_NODE":275.1761,"ARG_OF_PERICENTER":136.5404,"MEAN_ANOMALY":223.5974,"EPHEMERIS_TYPE":0,"CLASSIFICATION_TYPE":"U","NORAD_CAT_ID":39086,"ELEMENT_SET_NO":999,"REV_AT_EPOCH":68406,"BSTAR":6.1345357e-5,"MEAN_MOTION_DOT":1.24e-6,"MEAN_MOTION_DDOT":0},{"OBJECT_NAME":"GAOFEN-1","OBJECT_ID":"2013-018A","EPOCH":"2026-03-28T14:57:17.066880","MEAN_MOTION":14.76513102,"ECCENTRICITY":0.00175841,"INCLINATION":97.9143,"RA_OF_ASC_NODE":161.3106,"ARG_OF_PERICENTER":161.2185,"MEAN_ANOMALY":198.9677,"EPHEMERIS_TYPE":0,"CLASSIFICATION_TYPE":"U","NORAD_CAT_ID":39150,"ELEMENT_SET_NO":999,"REV_AT_EPOCH":69635,"BSTAR":0.000124703,"MEAN_MOTION_DOT":8.2e-6,"MEAN_MOTION_DDOT":0},{"OBJECT_NAME":"VNREDSAT 1","OBJECT_ID":"2013-021B","EPOCH":"2026-03-28T14:59:40.345728","MEAN_MOTION":14.64916785,"ECCENTRICITY":0.00014387,"INCLINATION":97.9178,"RA_OF_ASC_NODE":144.0964,"ARG_OF_PERICENTER":79.4652,"MEAN_ANOMALY":280.6713,"EPHEMERIS_TYPE":0,"CLASSIFICATION_TYPE":"U","NORAD_CAT_ID":39160,"ELEMENT_SET_NO":999,"REV_AT_EPOCH":68849,"BSTAR":0.00017012628,"MEAN_MOTION_DOT":8.64e-6,"MEAN_MOTION_DDOT":0},{"OBJECT_NAME":"ARIRANG-5 (KOMPSAT-5)","OBJECT_ID":"2013-042A","EPOCH":"2026-03-28T13:23:28.008384","MEAN_MOTION":15.04539946,"ECCENTRICITY":0.00049914,"INCLINATION":97.6213,"RA_OF_ASC_NODE":275.3819,"ARG_OF_PERICENTER":66.8957,"MEAN_ANOMALY":293.2795,"EPHEMERIS_TYPE":0,"CLASSIFICATION_TYPE":"U","NORAD_CAT_ID":39227,"ELEMENT_SET_NO":999,"REV_AT_EPOCH":69173,"BSTAR":7.5229912e-5,"MEAN_MOTION_DOT":9.94e-6,"MEAN_MOTION_DDOT":0},{"OBJECT_NAME":"SKYSAT-A","OBJECT_ID":"2013-066C","EPOCH":"2026-03-28T10:12:26.015904","MEAN_MOTION":15.12483526,"ECCENTRICITY":0.00204112,"INCLINATION":97.3916,"RA_OF_ASC_NODE":139.3848,"ARG_OF_PERICENTER":230.791,"MEAN_ANOMALY":129.1509,"EPHEMERIS_TYPE":0,"CLASSIFICATION_TYPE":"U","NORAD_CAT_ID":39418,"ELEMENT_SET_NO":999,"REV_AT_EPOCH":67627,"BSTAR":0.00022292332,"MEAN_MOTION_DOT":3.834e-5,"MEAN_MOTION_DDOT":0},{"OBJECT_NAME":"DUBAISAT-2","OBJECT_ID":"2013-066D","EPOCH":"2026-03-28T13:11:44.744352","MEAN_MOTION":15.09548131,"ECCENTRICITY":0.00099946,"INCLINATION":97.4545,"RA_OF_ASC_NODE":79.8567,"ARG_OF_PERICENTER":319.2372,"MEAN_ANOMALY":40.8109,"EPHEMERIS_TYPE":0,"CLASSIFICATION_TYPE":"U","NORAD_CAT_ID":39419,"ELEMENT_SET_NO":999,"REV_AT_EPOCH":67422,"BSTAR":0.00025546127,"MEAN_MOTION_DOT":4.041e-5,"MEAN_MOTION_DDOT":0},{"OBJECT_NAME":"GPM-CORE","OBJECT_ID":"2014-009C","EPOCH":"2026-03-28T14:42:20.670336","MEAN_MOTION":15.45096591,"ECCENTRICITY":0.00124277,"INCLINATION":64.9726,"RA_OF_ASC_NODE":218.0837,"ARG_OF_PERICENTER":272.3785,"MEAN_ANOMALY":87.5933,"EPHEMERIS_TYPE":0,"CLASSIFICATION_TYPE":"U","NORAD_CAT_ID":39574,"ELEMENT_SET_NO":999,"REV_AT_EPOCH":68536,"BSTAR":0.00036421482,"MEAN_MOTION_DOT":0.00017162,"MEAN_MOTION_DDOT":0},{"OBJECT_NAME":"SENTINEL-1A","OBJECT_ID":"2014-016A","EPOCH":"2026-03-28T14:10:08.558112","MEAN_MOTION":14.59199179,"ECCENTRICITY":0.00013761,"INCLINATION":98.1821,"RA_OF_ASC_NODE":96.2901,"ARG_OF_PERICENTER":83.3197,"MEAN_ANOMALY":276.816,"EPHEMERIS_TYPE":0,"CLASSIFICATION_TYPE":"U","NORAD_CAT_ID":39634,"ELEMENT_SET_NO":999,"REV_AT_EPOCH":63826,"BSTAR":1.3129547e-5,"MEAN_MOTION_DOT":1.6e-7,"MEAN_MOTION_DDOT":0},{"OBJECT_NAME":"KAZEOSAT 1","OBJECT_ID":"2014-024A","EPOCH":"2026-03-28T14:29:44.235744","MEAN_MOTION":14.42046309,"ECCENTRICITY":0.00010659,"INCLINATION":98.3251,"RA_OF_ASC_NODE":162.0409,"ARG_OF_PERICENTER":97.7493,"MEAN_ANOMALY":262.3818,"EPHEMERIS_TYPE":0,"CLASSIFICATION_TYPE":"U","NORAD_CAT_ID":39731,"ELEMENT_SET_NO":999,"REV_AT_EPOCH":62694,"BSTAR":0.00016801514,"MEAN_MOTION_DOT":5.09e-6,"MEAN_MOTION_DDOT":0},{"OBJECT_NAME":"ALOS-2","OBJECT_ID":"2014-029A","EPOCH":"2026-03-28T14:07:07.317696","MEAN_MOTION":14.7944603,"ECCENTRICITY":0.00019284,"INCLINATION":97.9186,"RA_OF_ASC_NODE":185.9108,"ARG_OF_PERICENTER":102.7367,"MEAN_ANOMALY":257.406,"EPHEMERIS_TYPE":0,"CLASSIFICATION_TYPE":"U","NORAD_CAT_ID":39766,"ELEMENT_SET_NO":999,"REV_AT_EPOCH":63966,"BSTAR":0.00026886408,"MEAN_MOTION_DOT":1.956e-5,"MEAN_MOTION_DDOT":0},{"OBJECT_NAME":"KAZEOSAT 2","OBJECT_ID":"2014-033A","EPOCH":"2026-03-28T14:19:45.071616","MEAN_MOTION":14.85368924,"ECCENTRICITY":0.0007447,"INCLINATION":97.5481,"RA_OF_ASC_NODE":291.4384,"ARG_OF_PERICENTER":218.0716,"MEAN_ANOMALY":141.9974,"EPHEMERIS_TYPE":0,"CLASSIFICATION_TYPE":"U","NORAD_CAT_ID":40010,"ELEMENT_SET_NO":999,"REV_AT_EPOCH":63699,"BSTAR":0.00014290971,"MEAN_MOTION_DOT":1.18e-5,"MEAN_MOTION_DDOT":0},{"OBJECT_NAME":"HODOYOSHI-4","OBJECT_ID":"2014-033B","EPOCH":"2026-03-28T14:37:39.058176","MEAN_MOTION":14.87909309,"ECCENTRICITY":0.00228628,"INCLINATION":97.5462,"RA_OF_ASC_NODE":276.3262,"ARG_OF_PERICENTER":209.8011,"MEAN_ANOMALY":150.1905,"EPHEMERIS_TYPE":0,"CLASSIFICATION_TYPE":"U","NORAD_CAT_ID":40011,"ELEMENT_SET_NO":999,"REV_AT_EPOCH":63682,"BSTAR":0.00021428834,"MEAN_MOTION_DOT":1.919e-5,"MEAN_MOTION_DDOT":0},{"OBJECT_NAME":"DEIMOS-2","OBJECT_ID":"2014-033D","EPOCH":"2026-03-28T14:09:33.653376","MEAN_MOTION":14.934782,"ECCENTRICITY":8.035e-5,"INCLINATION":97.5947,"RA_OF_ASC_NODE":324.8696,"ARG_OF_PERICENTER":110.1582,"MEAN_ANOMALY":249.9725,"EPHEMERIS_TYPE":0,"CLASSIFICATION_TYPE":"U","NORAD_CAT_ID":40013,"ELEMENT_SET_NO":999,"REV_AT_EPOCH":62569,"BSTAR":0.00014183903,"MEAN_MOTION_DOT":1.438e-5,"MEAN_MOTION_DDOT":0},{"OBJECT_NAME":"HODOYOSHI-3","OBJECT_ID":"2014-033F","EPOCH":"2026-03-28T09:51:16.990848","MEAN_MOTION":14.85189095,"ECCENTRICITY":0.00315672,"INCLINATION":97.6332,"RA_OF_ASC_NODE":253.7467,"ARG_OF_PERICENTER":260.1276,"MEAN_ANOMALY":99.6375,"EPHEMERIS_TYPE":0,"CLASSIFICATION_TYPE":"U","NORAD_CAT_ID":40015,"ELEMENT_SET_NO":999,"REV_AT_EPOCH":63563,"BSTAR":0.00015706508,"MEAN_MOTION_DOT":1.304e-5,"MEAN_MOTION_DDOT":0},{"OBJECT_NAME":"SPOT 7","OBJECT_ID":"2014-034A","EPOCH":"2026-03-28T15:16:32.088864","MEAN_MOTION":14.60883402,"ECCENTRICITY":0.00015865,"INCLINATION":98.0708,"RA_OF_ASC_NODE":152.1802,"ARG_OF_PERICENTER":92.6214,"MEAN_ANOMALY":267.5169,"EPHEMERIS_TYPE":0,"CLASSIFICATION_TYPE":"U","NORAD_CAT_ID":40053,"ELEMENT_SET_NO":999,"REV_AT_EPOCH":62537,"BSTAR":0.0001529537,"MEAN_MOTION_DOT":7.03e-6,"MEAN_MOTION_DDOT":0},{"OBJECT_NAME":"SKYSAT-B","OBJECT_ID":"2014-037D","EPOCH":"2026-03-28T10:14:23.560512","MEAN_MOTION":14.87794616,"ECCENTRICITY":0.0005654,"INCLINATION":98.3758,"RA_OF_ASC_NODE":41.8411,"ARG_OF_PERICENTER":166.6141,"MEAN_ANOMALY":193.5225,"EPHEMERIS_TYPE":0,"CLASSIFICATION_TYPE":"U","NORAD_CAT_ID":40072,"ELEMENT_SET_NO":999,"REV_AT_EPOCH":63395,"BSTAR":0.00020663372,"MEAN_MOTION_DOT":1.826e-5,"MEAN_MOTION_DDOT":0}]
